EUTELSAT QUANTUM        
1 49056U 21069B   26073.57790882  .00000125  00000+0  00000+0 0  9992
2 49056   0.0257 278.4563 0002587  76.0957  73.3792  1.00272287 16974
ZHONGXING-2E            
1 49062U 21071A   26073.68447198 -.00000292  00000+0  00000+0 0  9999
2 49062   0.0455 305.2409 0001200 177.4309  34.0827  1.00271164 17097
TJS-7                   
1 49115U 21077A   26073.62010935 -.00000125  00000+0  00000+0 0  9998
2 49115   0.2627  87.8971 0002102 284.3729 283.6975  1.00273818  8603
CHINASAT 9B             
1 49125U 21080A   26072.80405831 -.00000312  00000+0  00000+0 0  9993
2 49125   0.0190 151.3902 0001801 186.9386 223.9023  1.00267747 16692
SHIYAN-10 01 (SY-10 01) 
1 49258U 21087A   26072.19585569  .00000689  00000+0  00000+0 0  9992
2 49258  63.1020 231.1701 6971035 269.9213  17.1628  2.00639793 32605
SHIJIAN-21 (SJ-21)      
1 49330U 21094A   26073.80208172 -.00000347  00000+0  00000+0 0  9994
2 49330   4.8883  61.7033 0048044 171.4375 355.7240  1.00262998  4412
SES-17                  
1 49332U 21095A   26073.55520206 -.00000273  00000+0  00000+0 0  9992
2 49332   0.0277  54.1200 0000963 312.3480 298.4624  1.00269886 16901
SYRACUSE 4A             
1 49333U 21095B   26073.57747549  .00000134  00000+0  00000+0 0  9991
2 49333   0.0094 166.1284 0001470 182.0018  77.4425  1.00270653 16995
QZS-1R (MICHIBIKI-1R)   
1 49336U 21096A   26073.48417348 -.00000213  00000+0  00000+0 0  9995
2 49336  37.2643  80.9807 0748407 269.9092 130.1920  1.00287959 16061
ATLAS 5 CENTAUR DEB     
1 49340U 18079ER  26072.77594658 -.00000143  00000+0  00000+0 0  9990
2 49340  13.6454  45.8652 4774455 285.2463  28.2877  1.76318463 29229
ATLAS 5 CENTAUR DEB     
1 49341U 18079ES  26073.40105766 -.00000118  00000+0  00000+0 0  9992
2 49341  13.5921  54.7574 4652094 265.5601  41.9395  1.75092454 29044
ATLAS 5 CENTAUR DEB     
1 49343U 18079EU  26073.50141255 -.00000107  00000+0  00000+0 0  9996
2 49343  12.8360  67.8601 4585373 249.5935  56.5142  1.74625934 28975
ATLAS 5 CENTAUR DEB     
1 49351U 18079FC  26067.18867165 -.00000133  00000+0  00000+0 0  9996
2 49351  13.1652  66.6772 4674812 244.7261  60.4326  1.72154727 28461
ATLAS 5 CENTAUR DEB     
1 49352U 18079FD  26069.50490627 -.00000101  00000+0  00000+0 0  9995
2 49352  12.2827  86.1544 4607112 213.8179 105.8123  1.68334456 27859
ATLAS 5 CENTAUR DEB     
1 49356U 18079FH  26070.40092046 -.00000147  00000+0  00000+0 0  9993
2 49356  13.2094  52.6170 4649781 277.9357  33.5535  1.78469227 29548
ATLAS 5 CENTAUR DEB     
1 49362U 18079FP  26070.87977743 -.00000157  00000+0  00000+0 0  9998
2 49362  13.4461  47.7082 4853848 284.9188  27.8089  1.75762973 29094
ATLAS 5 CENTAUR DEB     
1 49366U 18079FT  26072.57693329 -.00000149  00000+0  00000+0 0  9997
2 49366  14.2285  48.3732 5208664 273.4495  31.1237  1.65078759 27794
