[{"OBJECT_NAME":"EUTELSAT QUANTUM","OBJECT_ID":"2021-069B","EPOCH":"2026-03-14T13:52:11.322048","MEAN_MOTION":1.00272287,"ECCENTRICITY":0.00025872,"INCLINATION":0.0257,"RA_OF_ASC_NODE":278.4563,"ARG_OF_PERICENTER":76.0957,"MEAN_ANOMALY":73.3792,"EPHEMERIS_TYPE":0,"CLASSIFICATION_TYPE":"U","NORAD_CAT_ID":49056,"ELEMENT_SET_NO":999,"REV_AT_EPOCH":1697,"BSTAR":0,"MEAN_MOTION_DOT":1.25e-6,"MEAN_MOTION_DDOT":0},{"OBJECT_NAME":"ZHONGXING-2E","OBJECT_ID":"2021-071A","EPOCH":"2026-03-14T16:25:38.379072","MEAN_MOTION":1.00271164,"ECCENTRICITY":0.00012,"INCLINATION":0.0455,"RA_OF_ASC_NODE":305.2409,"ARG_OF_PERICENTER":177.4309,"MEAN_ANOMALY":34.0827,"EPHEMERIS_TYPE":0,"CLASSIFICATION_TYPE":"U","NORAD_CAT_ID":49062,"ELEMENT_SET_NO":999,"REV_AT_EPOCH":1709,"BSTAR":0,"MEAN_MOTION_DOT":-2.92e-6,"MEAN_MOTION_DDOT":0},{"OBJECT_NAME":"TJS-7","OBJECT_ID":"2021-077A","EPOCH":"2026-03-14T14:52:57.447840","MEAN_MOTION":1.00273818,"ECCENTRICITY":0.00021024,"INCLINATION":0.2627,"RA_OF_ASC_NODE":87.8971,"ARG_OF_PERICENTER":284.3729,"MEAN_ANOMALY":283.6975,"EPHEMERIS_TYPE":0,"CLASSIFICATION_TYPE":"U","NORAD_CAT_ID":49115,"ELEMENT_SET_NO":999,"REV_AT_EPOCH":860,"BSTAR":0,"MEAN_MOTION_DOT":-1.25e-6,"MEAN_MOTION_DDOT":0},{"OBJECT_NAME":"CHINASAT 9B","OBJECT_ID":"2021-080A","EPOCH":"2026-03-13T19:17:50.637984","MEAN_MOTION":1.00267747,"ECCENTRICITY":0.00018017,"INCLINATION":0.019,"RA_OF_ASC_NODE":151.3902,"ARG_OF_PERICENTER":186.9386,"MEAN_ANOMALY":223.9023,"EPHEMERIS_TYPE":0,"CLASSIFICATION_TYPE":"U","NORAD_CAT_ID":49125,"ELEMENT_SET_NO":999,"REV_AT_EPOCH":1669,"BSTAR":0,"MEAN_MOTION_DOT":-3.12e-6,"MEAN_MOTION_DDOT":0},{"OBJECT_NAME":"SHIYAN-10 01 (SY-10 01)","OBJECT_ID":"2021-087A","EPOCH":"2026-03-13T04:42:01.931616","MEAN_MOTION":2.00639793,"ECCENTRICITY":0.69710354,"INCLINATION":63.102,"RA_OF_ASC_NODE":231.1701,"ARG_OF_PERICENTER":269.9213,"MEAN_ANOMALY":17.1628,"EPHEMERIS_TYPE":0,"CLASSIFICATION_TYPE":"U","NORAD_CAT_ID":49258,"ELEMENT_SET_NO":999,"REV_AT_EPOCH":3260,"BSTAR":0,"MEAN_MOTION_DOT":6.89e-6,"MEAN_MOTION_DDOT":0},{"OBJECT_NAME":"SHIJIAN-21 (SJ-21)","OBJECT_ID":"2021-094A","EPOCH":"2026-03-14T19:14:59.860608","MEAN_MOTION":1.00262998,"ECCENTRICITY":0.0048044,"INCLINATION":4.8883,"RA_OF_ASC_NODE":61.7033,"ARG_OF_PERICENTER":171.4375,"MEAN_ANOMALY":355.724,"EPHEMERIS_TYPE":0,"CLASSIFICATION_TYPE":"U","NORAD_CAT_ID":49330,"ELEMENT_SET_NO":999,"REV_AT_EPOCH":441,"BSTAR":0,"MEAN_MOTION_DOT":-3.47e-6,"MEAN_MOTION_DDOT":0},{"OBJECT_NAME":"SES-17","OBJECT_ID":"2021-095A","EPOCH":"2026-03-14T13:19:29.457984","MEAN_MOTION":1.00269886,"ECCENTRICITY":9.632e-5,"INCLINATION":0.0277,"RA_OF_ASC_NODE":54.12,"ARG_OF_PERICENTER":312.348,"MEAN_ANOMALY":298.4624,"EPHEMERIS_TYPE":0,"CLASSIFICATION_TYPE":"U","NORAD_CAT_ID":49332,"ELEMENT_SET_NO":999,"REV_AT_EPOCH":1690,"BSTAR":0,"MEAN_MOTION_DOT":-2.73e-6,"MEAN_MOTION_DDOT":0},{"OBJECT_NAME":"SYRACUSE 4A","OBJECT_ID":"2021-095B","EPOCH":"2026-03-14T13:51:33.882336","MEAN_MOTION":1.00270653,"ECCENTRICITY":0.00014704,"INCLINATION":0.0094,"RA_OF_ASC_NODE":166.1284,"ARG_OF_PERICENTER":182.0018,"MEAN_ANOMALY":77.4425,"EPHEMERIS_TYPE":0,"CLASSIFICATION_TYPE":"U","NORAD_CAT_ID":49333,"ELEMENT_SET_NO":999,"REV_AT_EPOCH":1699,"BSTAR":0,"MEAN_MOTION_DOT":1.34e-6,"MEAN_MOTION_DDOT":0},{"OBJECT_NAME":"QZS-1R (MICHIBIKI-1R)","OBJECT_ID":"2021-096A","EPOCH":"2026-03-14T11:37:12.588672","MEAN_MOTION":1.00287959,"ECCENTRICITY":0.0748407,"INCLINATION":37.2643,"RA_OF_ASC_NODE":80.9807,"ARG_OF_PERICENTER":269.9092,"MEAN_ANOMALY":130.192,"EPHEMERIS_TYPE":0,"CLASSIFICATION_TYPE":"U","NORAD_CAT_ID":49336,"ELEMENT_SET_NO":999,"REV_AT_EPOCH":1606,"BSTAR":0,"MEAN_MOTION_DOT":-2.13e-6,"MEAN_MOTION_DDOT":0},{"OBJECT_NAME":"ATLAS 5 CENTAUR DEB","OBJECT_ID":"2018-079ER","EPOCH":"2026-03-13T18:37:21.784512","MEAN_MOTION":1.76318463,"ECCENTRICITY":0.4774455,"INCLINATION":13.6454,"RA_OF_ASC_NODE":45.8652,"ARG_OF_PERICENTER":285.2463,"MEAN_ANOMALY":28.2877,"EPHEMERIS_TYPE":0,"CLASSIFICATION_TYPE":"U","NORAD_CAT_ID":49340,"ELEMENT_SET_NO":999,"REV_AT_EPOCH":2922,"BSTAR":0,"MEAN_MOTION_DOT":-1.43e-6,"MEAN_MOTION_DDOT":0},{"OBJECT_NAME":"ATLAS 5 CENTAUR DEB","OBJECT_ID":"2018-079ES","EPOCH":"2026-03-14T09:37:31.381824","MEAN_MOTION":1.75092454,"ECCENTRICITY":0.4652094,"INCLINATION":13.5921,"RA_OF_ASC_NODE":54.7574,"ARG_OF_PERICENTER":265.5601,"MEAN_ANOMALY":41.9395,"EPHEMERIS_TYPE":0,"CLASSIFICATION_TYPE":"U","NORAD_CAT_ID":49341,"ELEMENT_SET_NO":999,"REV_AT_EPOCH":2904,"BSTAR":0,"MEAN_MOTION_DOT":-1.18e-6,"MEAN_MOTION_DDOT":0},{"OBJECT_NAME":"ATLAS 5 CENTAUR DEB","OBJECT_ID":"2018-079EU","EPOCH":"2026-03-14T12:02:02.044320","MEAN_MOTION":1.74625934,"ECCENTRICITY":0.45853734,"INCLINATION":12.836,"RA_OF_ASC_NODE":67.8601,"ARG_OF_PERICENTER":249.5935,"MEAN_ANOMALY":56.5142,"EPHEMERIS_TYPE":0,"CLASSIFICATION_TYPE":"U","NORAD_CAT_ID":49343,"ELEMENT_SET_NO":999,"REV_AT_EPOCH":2897,"BSTAR":0,"MEAN_MOTION_DOT":-1.07e-6,"MEAN_MOTION_DDOT":0},{"OBJECT_NAME":"ATLAS 5 CENTAUR DEB","OBJECT_ID":"2018-079FC","EPOCH":"2026-03-08T04:31:41.230560","MEAN_MOTION":1.72154727,"ECCENTRICITY":0.4674812,"INCLINATION":13.1652,"RA_OF_ASC_NODE":66.6772,"ARG_OF_PERICENTER":244.7261,"MEAN_ANOMALY":60.4326,"EPHEMERIS_TYPE":0,"CLASSIFICATION_TYPE":"U","NORAD_CAT_ID":49351,"ELEMENT_SET_NO":999,"REV_AT_EPOCH":2846,"BSTAR":0,"MEAN_MOTION_DOT":-1.33e-6,"MEAN_MOTION_DDOT":0},{"OBJECT_NAME":"ATLAS 5 CENTAUR DEB","OBJECT_ID":"2018-079FD","EPOCH":"2026-03-10T12:07:03.901728","MEAN_MOTION":1.68334456,"ECCENTRICITY":0.46071121,"INCLINATION":12.2827,"RA_OF_ASC_NODE":86.1544,"ARG_OF_PERICENTER":213.8179,"MEAN_ANOMALY":105.8123,"EPHEMERIS_TYPE":0,"CLASSIFICATION_TYPE":"U","NORAD_CAT_ID":49352,"ELEMENT_SET_NO":999,"REV_AT_EPOCH":2785,"BSTAR":0,"MEAN_MOTION_DOT":-1.01e-6,"MEAN_MOTION_DDOT":0},{"OBJECT_NAME":"ATLAS 5 CENTAUR DEB","OBJECT_ID":"2018-079FH","EPOCH":"2026-03-11T09:37:19.527744","MEAN_MOTION":1.78469227,"ECCENTRICITY":0.4649781,"INCLINATION":13.2094,"RA_OF_ASC_NODE":52.617,"ARG_OF_PERICENTER":277.9357,"MEAN_ANOMALY":33.5535,"EPHEMERIS_TYPE":0,"CLASSIFICATION_TYPE":"U","NORAD_CAT_ID":49356,"ELEMENT_SET_NO":999,"REV_AT_EPOCH":2954,"BSTAR":0,"MEAN_MOTION_DOT":-1.47e-6,"MEAN_MOTION_DDOT":0},{"OBJECT_NAME":"ATLAS 5 CENTAUR DEB","OBJECT_ID":"2018-079FP","EPOCH":"2026-03-11T21:06:52.769952","MEAN_MOTION":1.75762973,"ECCENTRICITY":0.4853848,"INCLINATION":13.4461,"RA_OF_ASC_NODE":47.7082,"ARG_OF_PERICENTER":284.9188,"MEAN_ANOMALY":27.8089,"EPHEMERIS_TYPE":0,"CLASSIFICATION_TYPE":"U","NORAD_CAT_ID":49362,"ELEMENT_SET_NO":999,"REV_AT_EPOCH":2909,"BSTAR":0,"MEAN_MOTION_DOT":-1.57e-6,"MEAN_MOTION_DDOT":0},{"OBJECT_NAME":"ATLAS 5 CENTAUR DEB","OBJECT_ID":"2018-079FT","EPOCH":"2026-03-13T13:50:47.036256","MEAN_MOTION":1.65078759,"ECCENTRICITY":0.52086648,"INCLINATION":14.2285,"RA_OF_ASC_NODE":48.3732,"ARG_OF_PERICENTER":273.4495,"MEAN_ANOMALY":31.1237,"EPHEMERIS_TYPE":0,"CLASSIFICATION_TYPE":"U","NORAD_CAT_ID":49366,"ELEMENT_SET_NO":999,"REV_AT_EPOCH":2779,"BSTAR":0,"MEAN_MOTION_DOT":-1.49e-6,"MEAN_MOTION_DDOT":0}]
